start=new Date('2022-08-28T00:00:00.000Z').valueOf();
sats=[{"ECCENTRICITY":"0.00015750","RA_OF_ASC_NODE":"132.4971","MEAN_MOTION":"15.06403632","CLASSIFICATION_TYPE":"U","GP_ID":"211135168","RCS_SIZE":"LARGE","OBJECT_TYPE":"PAYLOAD","MEAN_MOTION_DOT":"0.00001148","APOAPSIS":"548.293","DECAY_DATE":null,"NORAD_CAT_ID":"48323","FILE":"3548882","EPHEMERIS_TYPE":"0","REV_AT_EPOCH":"7360","LAUNCH_DATE":"2021-04-29","ELEMENT_SET_NO":"999","MEAN_ELEMENT_THEORY":"SGP4","TIME_SYSTEM":"UTC","SITE":"AFETR","SEMIMAJOR_AXIS":"6925.337","TLE_LINE2":"2 48323  53.0547 132.4971 0001575  74.6034 285.5129 15.06403632 73603","EPOCH":"2022-08-27T17:23:01.511520","BSTAR":"0.00009595900000","OBJECT_NAME":"STARLINK-2515","TLE_LINE1":"1 48323U 21036AZ  22239.72432305  .00001148  00000-0  95959-4 0  9991","CENTER_NAME":"EARTH","INCLINATION":"53.0547","REF_FRAME":"TEME","PERIAPSIS":"546.112","MEAN_ANOMALY":"285.5129","COUNTRY_CODE":"US","MEAN_MOTION_DDOT":"0.0000000000000","PERIOD":"95.592","ARG_OF_PERICENTER":"74.6034","OBJECT_ID":"2021-036AZ"},{"EPOCH":"2022-08-27T02:56:30.696000","TLE_LINE2":"2 48324  53.0557 135.1800 0001549  83.9391 276.1775 15.06398538 73506","TIME_SYSTEM":"UTC","SITE":"AFETR","SEMIMAJOR_AXIS":"6925.353","MEAN_ELEMENT_THEORY":"SGP4","ELEMENT_SET_NO":"999","LAUNCH_DATE":"2021-04-29","FILE":"3548622","EPHEMERIS_TYPE":"0","REV_AT_EPOCH":"7350","NORAD_CAT_ID":"48324","DECAY_DATE":null,"MEAN_MOTION_DOT":"0.00000829","APOAPSIS":"548.291","RCS_SIZE":"LARGE","OBJECT_TYPE":"PAYLOAD","CLASSIFICATION_TYPE":"U","GP_ID":"211102912","MEAN_MOTION":"15.06398538","RA_OF_ASC_NODE":"135.1800","ECCENTRICITY":"0.00015490","PERIOD":"95.592","ARG_OF_PERICENTER":"83.9391","OBJECT_ID":"2021-036BA","MEAN_MOTION_DDOT":"0.0000000000000","COUNTRY_CODE":"US","MEAN_ANOMALY":"276.1775","PERIAPSIS":"546.145","REF_FRAME":"TEME","INCLINATION":"53.0557","CENTER_NAME":"EARTH","TLE_LINE1":"1 48324U 21036BA  22239.12257750  .00000829  00000-0  74557-4 0  9991","OBJECT_NAME":"STARLINK-2527","BSTAR":"0.00007455700000"},{"MEAN_ELEMENT_THEORY":"SGP4","SITE":"AFETR","TIME_SYSTEM":"UTC","SEMIMAJOR_AXIS":"6925.364","EPHEMERIS_TYPE":"0","FILE":"3548882","REV_AT_EPOCH":"7363","NORAD_CAT_ID":"48325","ELEMENT_SET_NO":"999","LAUNCH_DATE":"2021-04-29","EPOCH":"2022-08-27T21:59:02.431968","TLE_LINE2":"2 48325  53.0549 131.6529 0001758  71.1658 288.9521 15.06395090 73638","MEAN_MOTION":"15.06395090","ECCENTRICITY":"0.00017580","RA_OF_ASC_NODE":"131.6529","MEAN_MOTION_DOT":"-0.00000611","APOAPSIS":"548.446","DECAY_DATE":null,"GP_ID":"211135639","CLASSIFICATION_TYPE":"U","OBJECT_TYPE":"PAYLOAD","RCS_SIZE":"LARGE","MEAN_ANOMALY":"288.9521","PERIAPSIS":"546.011","INCLINATION":"53.0549","REF_FRAME":"TEME","COUNTRY_CODE":"US","MEAN_MOTION_DDOT":"0.0000000000000","PERIOD":"95.592","OBJECT_ID":"2021-036BB","ARG_OF_PERICENTER":"71.1658","TLE_LINE1":"1 48325U 21036BB  22239.91600037 -.00000611  00000-0 -22100-4 0  9997","OBJECT_NAME":"STARLINK-2495","BSTAR":"-0.00002210000000","CENTER_NAME":"EARTH"},{"ELEMENT_SET_NO":"999","LAUNCH_DATE":"2021-04-29","REV_AT_EPOCH":"7363","FILE":"3548882","EPHEMERIS_TYPE":"0","NORAD_CAT_ID":"48326","SITE":"AFETR","SEMIMAJOR_AXIS":"6925.322","TIME_SYSTEM":"UTC","MEAN_ELEMENT_THEORY":"SGP4","EPOCH":"2022-08-27T21:53:43.147680","TLE_LINE2":"2 48326  53.0550 131.6657 0001487  89.9414 270.1745 15.06408680 73630","RA_OF_ASC_NODE":"131.6657","ECCENTRICITY":"0.00014870","MEAN_MOTION":"15.06408680","OBJECT_TYPE":"PAYLOAD","RCS_SIZE":"MEDIUM","GP_ID":"211134425","CLASSIFICATION_TYPE":"U","DECAY_DATE":null,"APOAPSIS":"548.217","MEAN_MOTION_DOT":"0.00000045","REF_FRAME":"TEME","INCLINATION":"53.0550","MEAN_ANOMALY":"270.1745","PERIAPSIS":"546.157","ARG_OF_PERICENTER":"89.9414","PERIOD":"95.592","OBJECT_ID":"2021-036BC","MEAN_MOTION_DDOT":"0.0000000000000","COUNTRY_CODE":"US","BSTAR":"0.00002190400000","TLE_LINE1":"1 48326U 21036BC  22239.91230495  .00000045  00000-0  21904-4 0  9995","OBJECT_NAME":"STARLINK-2498","CENTER_NAME":"EARTH"},{"EPOCH":"2022-08-27T21:48:24.439680","TLE_LINE2":"2 48327  53.0554 131.6798 0001684  74.8151 285.3024 15.06410970 73634","ELEMENT_SET_NO":"999","LAUNCH_DATE":"2021-04-29","FILE":"3548882","REV_AT_EPOCH":"7363","EPHEMERIS_TYPE":"0","NORAD_CAT_ID":"48327","TIME_SYSTEM":"UTC","SITE":"AFETR","SEMIMAJOR_AXIS":"6925.315","MEAN_ELEMENT_THEORY":"SGP4","OBJECT_TYPE":"PAYLOAD","RCS_SIZE":"LARGE","GP_ID":"211134675","CLASSIFICATION_TYPE":"U","DECAY_DATE":null,"APOAPSIS":"548.346","MEAN_MOTION_DOT":"0.00000405","RA_OF_ASC_NODE":"131.6798","ECCENTRICITY":"0.00016840","MEAN_MOTION":"15.06410970","PERIOD":"95.591","OBJECT_ID":"2021-036BD","ARG_OF_PERICENTER":"74.8151","COUNTRY_CODE":"US","MEAN_MOTION_DDOT":"0.0000000000000","REF_FRAME":"TEME","INCLINATION":"53.0554","PERIAPSIS":"546.014","MEAN_ANOMALY":"285.3024","CENTER_NAME":"EARTH","BSTAR":"0.00004606400000","TLE_LINE1":"1 48327U 21036BD  22239.90861620  .00000405  00000-0  46064-4 0  9999","OBJECT_NAME":"STARLINK-2502"},{"PERIOD":"95.592","OBJECT_ID":"2021-036BE","ARG_OF_PERICENTER":"79.4826","COUNTRY_CODE":"US","MEAN_MOTION_DDOT":"0.0000000000000","REF_FRAME":"TEME","INCLINATION":"53.0560","PERIAPSIS":"545.986","MEAN_ANOMALY":"280.6358","CENTER_NAME":"EARTH","BSTAR":"0.00008254400000","TLE_LINE1":"1 48328U 21036BE  22239.90399718  .00000948  00000-0  82544-4 0  9999","OBJECT_NAME":"STARLINK-2504","EPOCH":"2022-08-27T21:41:45.356352","TLE_LINE2":"2 48328  53.0560 131.6963 0001735  79.4826 280.6358 15.06408487 73631","ELEMENT_SET_NO":"999","LAUNCH_DATE":"2021-04-29","EPHEMERIS_TYPE":"0","FILE":"3548882","REV_AT_EPOCH":"7363","NORAD_CAT_ID":"48328","SITE":"AFETR","TIME_SYSTEM":"UTC","SEMIMAJOR_AXIS":"6925.323","MEAN_ELEMENT_THEORY":"SGP4","RCS_SIZE":"LARGE","OBJECT_TYPE":"PAYLOAD","GP_ID":"211135913","CLASSIFICATION_TYPE":"U","DECAY_DATE":null,"APOAPSIS":"548.389","MEAN_MOTION_DOT":"0.00000948","RA_OF_ASC_NODE":"131.6963","ECCENTRICITY":"0.00017350","MEAN_MOTION":"15.06408487"},{"INCLINATION":"53.0540","REF_FRAME":"TEME","PERIAPSIS":"545.829","MEAN_ANOMALY":"298.7547","COUNTRY_CODE":"US","MEAN_MOTION_DDOT":"0.0000000000000","OBJECT_ID":"2021-036BF","PERIOD":"95.592","ARG_OF_PERICENTER":"61.3638","BSTAR":"0.00010766000000","TLE_LINE1":"1 48329U 21036BF  22239.90125426  .00001323  00000-0  10766-3 0  9997","OBJECT_NAME":"STARLINK-2510","CENTER_NAME":"EARTH","FILE":"3548882","EPHEMERIS_TYPE":"0","REV_AT_EPOCH":"7363","NORAD_CAT_ID":"48329","ELEMENT_SET_NO":"999","LAUNCH_DATE":"2021-04-29","MEAN_ELEMENT_THEORY":"SGP4","SEMIMAJOR_AXIS":"6925.320","SITE":"AFETR","TIME_SYSTEM":"UTC","EPOCH":"2022-08-27T21:37:48.368064","TLE_LINE2":"2 48329  53.0540 131.7084 0001957  61.3638 298.7547 15.06409389 73634","ECCENTRICITY":"0.00019570","RA_OF_ASC_NODE":"131.7084","MEAN_MOTION":"15.06409389","CLASSIFICATION_TYPE":"U","GP_ID":"211136133","RCS_SIZE":"LARGE","OBJECT_TYPE":"PAYLOAD","MEAN_MOTION_DOT":"0.00001323","APOAPSIS":"548.540","DECAY_DATE":null},{"INCLINATION":"53.0545","REF_FRAME":"TEME","MEAN_ANOMALY":"273.0263","PERIAPSIS":"546.175","MEAN_MOTION_DDOT":"0.0000000000000","COUNTRY_CODE":"US","PERIOD":"95.592","OBJECT_ID":"2021-036BG","ARG_OF_PERICENTER":"87.0895","BSTAR":"0.00014160000000","OBJECT_NAME":"STARLINK-2501","TLE_LINE1":"1 48330U 21036BG  22239.89756555  .00001829  00000-0  14160-3 0  9993","CENTER_NAME":"EARTH","NORAD_CAT_ID":"48330","FILE":"3548882","EPHEMERIS_TYPE":"0","REV_AT_EPOCH":"7363","LAUNCH_DATE":"2021-04-29","ELEMENT_SET_NO":"999","MEAN_ELEMENT_THEORY":"SGP4","TIME_SYSTEM":"UTC","SITE":"AFETR","SEMIMAJOR_AXIS":"6925.329","TLE_LINE2":"2 48330  53.0545 131.7263 0001471  87.0895 273.0263 15.06406461 73630","EPOCH":"2022-08-27T21:32:29.663520","ECCENTRICITY":"0.00014710","RA_OF_ASC_NODE":"131.7263","MEAN_MOTION":"15.06406461","CLASSIFICATION_TYPE":"U","GP_ID":"211134919","RCS_SIZE":"LARGE","OBJECT_TYPE":"PAYLOAD","APOAPSIS":"548.212","MEAN_MOTION_DOT":"0.00001829","DECAY_DATE":null},{"APOAPSIS":"548.529","MEAN_MOTION_DOT":"0.00000557","DECAY_DATE":null,"GP_ID":"211135169","CLASSIFICATION_TYPE":"U","OBJECT_TYPE":"PAYLOAD","RCS_SIZE":"LARGE","MEAN_MOTION":"15.06400009","ECCENTRICITY":"0.00019000","RA_OF_ASC_NODE":"131.7443","EPOCH":"2022-08-27T21:27:12.349152","TLE_LINE2":"2 48331  53.0544 131.7443 0001900  63.7293 296.3891 15.06400009 73637","MEAN_ELEMENT_THEORY":"SGP4","SITE":"AFETR","TIME_SYSTEM":"UTC","SEMIMAJOR_AXIS":"6925.349","EPHEMERIS_TYPE":"0","FILE":"3548882","REV_AT_EPOCH":"7363","NORAD_CAT_ID":"48331","ELEMENT_SET_NO":"999","LAUNCH_DATE":"2021-04-29","CENTER_NAME":"EARTH","TLE_LINE1":"1 48331U 21036BH  22239.89389293  .00000557  00000-0  56323-4 0  9990","OBJECT_NAME":"STARLINK-2514","BSTAR":"0.00005632300000","COUNTRY_CODE":"US","MEAN_MOTION_DDOT":"0.0000000000000","PERIOD":"95.592","OBJECT_ID":"2021-036BH","ARG_OF_PERICENTER":"63.7293","MEAN_ANOMALY":"296.3891","PERIAPSIS":"545.898","INCLINATION":"53.0544","REF_FRAME":"TEME"},{"MEAN_ELEMENT_THEORY":"SGP4","SITE":"AFETR","TIME_SYSTEM":"UTC","SEMIMAJOR_AXIS":"6925.328","NORAD_CAT_ID":"48332","EPHEMERIS_TYPE":"0","FILE":"3548882","REV_AT_EPOCH":"7363","LAUNCH_DATE":"2021-04-29","ELEMENT_SET_NO":"999","TLE_LINE2":"2 48332  53.0543 131.7317 0001821  68.0734 292.0448 15.06406565 73631","EPOCH":"2022-08-27T21:25:49.969344","MEAN_MOTION":"15.06406565","ECCENTRICITY":"0.00018210","RA_OF_ASC_NODE":"131.7317","APOAPSIS":"548.455","MEAN_MOTION_DOT":"0.00000440","DECAY_DATE":null,"CLASSIFICATION_TYPE":"U","GP_ID":"211135420","OBJECT_TYPE":"PAYLOAD","RCS_SIZE":"LARGE","MEAN_ANOMALY":"292.0448","PERIAPSIS":"545.932","INCLINATION":"53.0543","REF_FRAME":"TEME","COUNTRY_CODE":"US","MEAN_MOTION_DDOT":"0.0000000000000","PERIOD":"95.592","ARG_OF_PERICENTER":"68.0734","OBJECT_ID":"2021-036BJ","OBJECT_NAME":"STARLINK-2511","TLE_LINE1":"1 48332U 21036BJ  22239.89293946  .00000440  00000-0  48450-4 0  9993","BSTAR":"0.00004845000000","CENTER_NAME":"EARTH"}];
